OBJECT_NAME,OBJECT_ID,EPOCH,MEAN_MOTION,ECCENTRICITY,INCLINATION,RA_OF_ASC_NODE,ARG_OF_PERICENTER,MEAN_ANOMALY,EPHEMERIS_TYPE,CLASSIFICATION_TYPE,NORAD_CAT_ID,ELEMENT_SET_NO,REV_AT_EPOCH,BSTAR,MEAN_MOTION_DOT,MEAN_MOTION_DDOT
ONEWEB-0721,2023-068R,2026-06-14T11:48:13.472640,13.22468713,.00019187,86.6766,86.3766,77.8301,282.3047,0,U,56725,999,15758,.91680999E-4,.53E-6,0
ONEWEB-0015,2024-188A,2026-06-14T13:30:23.144832,13.11419214,.00022379,87.8890,21.6158,74.7779,285.3596,0,U,61594,999,8411,-.86837501E-3,-.295E-5,0
ONEWEB-0687,2024-188B,2026-06-14T13:45:08.465760,13.17648120,.0002348,87.9129,6.3967,87.8257,272.3143,0,U,61595,999,8555,.44817677E-4,.3E-6,0
ONEWEB-0688,2024-188C,2026-06-14T12:37:06.274848,13.17648426,.00027731,87.9128,6.4061,66.9724,293.1700,0,U,61596,999,8554,.11196251E-3,.56E-6,0
ONEWEB-0689,2024-188D,2026-06-14T14:19:13.749024,13.11417445,.00020429,87.8903,21.5665,91.7255,268.4107,0,U,61597,999,8411,.13622819E-2,.496E-5,0
ONEWEB-0690,2024-188E,2026-06-14T12:44:00.773664,13.11413859,.0001286,87.8896,21.5915,70.5690,289.5577,0,U,61598,999,8428,.16783186E-3,.72E-6,0
ONEWEB-0691,2024-188F,2026-06-14T12:36:42.161472,13.11415088,.00021567,87.8906,21.5009,79.8681,280.2690,0,U,61599,999,8413,.74238515E-3,.276E-5,0
ONEWEB-0692,2024-188G,2026-06-14T13:05:58.302816,13.11414792,.0001799,87.8887,21.6106,111.4202,248.7118,0,U,61600,999,8412,-.13059269E-2,-.45E-5,0
ONEWEB-0693,2024-188H,2026-06-14T12:54:06.503328,13.17647938,.00013767,87.9124,6.4238,64.3873,295.7400,0,U,61601,999,8553,.10311505E-3,.53E-6,0
ONEWEB-0695,2024-188J,2026-06-14T14:21:41.050656,13.11414963,.00020233,87.8886,21.5920,100.3381,259.7975,0,U,61602,999,8412,.121667E-2,.444E-5,0
ONEWEB-0697,2024-188K,2026-06-14T13:18:10.632672,13.11417618,.00017031,87.8887,21.5916,110.2760,249.8551,0,U,61603,999,8410,-.18986095E-2,-.66E-5,0
ONEWEB-0698,2024-188L,2026-06-14T12:46:26.987520,13.11413621,.00008064,87.8886,21.6096,115.0514,245.0697,0,U,61604,999,8412,-.3425085E-5,.11E-6,0
ONEWEB-0699,2024-188M,2026-06-14T13:01:55.793568,13.10375817,.00015295,87.8837,36.7930,103.3455,256.7843,0,U,61605,999,8296,.1068112E-2,.386E-5,0
ONEWEB-0700,2024-188N,2026-06-14T13:04:19.201152,13.10375669,.0001933,87.8855,36.7011,103.5542,256.5801,0,U,61606,999,8295,.14327205E-2,.513E-5,0
ONEWEB-0701,2024-188P,2026-06-14T13:28:13.543104,13.10371389,.00015375,87.8837,36.7883,110.6912,249.4381,0,U,61607,999,8296,.17663626E-2,.629E-5,0
ONEWEB-0702,2024-188Q,2026-06-14T13:52:22.973952,13.11419734,.00019648,87.8906,21.5060,116.1667,243.9663,0,U,61608,999,8414,.10386239E-2,.381E-5,0
ONEWEB-0704,2024-188R,2026-06-14T09:31:35.376672,13.10373829,.00021516,87.8845,36.8106,113.2107,246.9247,0,U,61609,999,8292,.18802648E-2,.669E-5,0
ONEWEB-0705,2024-188S,2026-06-14T09:38:45.347136,13.10388886,.00026442,87.8844,36.8150,100.0085,260.1341,0,U,61610,999,7509,.85147607E-2,.2987E-4,0
ONEWEB-0706,2024-188T,2026-06-14T09:17:14.101728,13.10376519,.00020569,87.8839,36.8234,99.7943,260.3416,0,U,61611,999,8301,.76561334E-3,.28E-5,0
ONEWEB-0707,2024-188U,2026-06-14T09:26:48.202944,13.10375271,.00019543,87.8842,36.8158,100.3373,259.7975,0,U,61612,999,8295,.17375342E-2,.619E-5,0
ONEWEB-0708,2024-188V,2026-06-14T13:33:00.372960,13.10370287,.00023688,87.8831,36.8001,84.5694,275.5704,0,U,61613,999,8295,.12610936E-2,.453E-5,0
