ONEWEB-0721             
1 56725U 23068R   26165.49182260  .00000053  00000+0  91681-4 0  9992
2 56725  86.6766  86.3766 0001918  77.8301 282.3047 13.22468713157586
ONEWEB-0015             
1 61594U 24188A   26165.56276788 -.00000295  00000+0 -86838-3 0  9990
2 61594  87.8890  21.6158 0002237  74.7779 285.3596 13.11419214 84114
ONEWEB-0687             
1 61595U 24188B   26165.57301465  .00000030  00000+0  44818-4 0  9991
2 61595  87.9129   6.3967 0002348  87.8257 272.3143 13.17648120 85557
ONEWEB-0688             
1 61596U 24188C   26165.52576707  .00000056  00000+0  11196-3 0  9990
2 61596  87.9128   6.4061 0002773  66.9724 293.1700 13.17648426 85540
ONEWEB-0689             
1 61597U 24188D   26165.59668691  .00000496  00000+0  13623-2 0  9996
2 61597  87.8903  21.5665 0002042  91.7255 268.4107 13.11417445 84110
ONEWEB-0690             
1 61598U 24188E   26165.53056451  .00000072  00000+0  16783-3 0  9997
2 61598  87.8896  21.5915 0001286  70.5690 289.5577 13.11413859 84285
ONEWEB-0691             
1 61599U 24188F   26165.52548798  .00000276  00000+0  74239-3 0  9993
2 61599  87.8906  21.5009 0002156  79.8681 280.2690 13.11415088 84135
ONEWEB-0692             
1 61600U 24188G   26165.54581369 -.00000450  00000+0 -13059-2 0  9997
2 61600  87.8887  21.6106 0001799 111.4202 248.7118 13.11414792 84123
ONEWEB-0693             
1 61601U 24188H   26165.53757527  .00000053  00000+0  10312-3 0  9995
2 61601  87.9124   6.4238 0001376  64.3873 295.7400 13.17647938 85535
ONEWEB-0695             
1 61602U 24188J   26165.59839179  .00000444  00000+0  12167-2 0  9999
2 61602  87.8886  21.5920 0002023 100.3381 259.7975 13.11414963 84126
ONEWEB-0697             
1 61603U 24188K   26165.55428973 -.00000660  00000+0 -18986-2 0  9999
2 61603  87.8887  21.5916 0001703 110.2760 249.8551 13.11417618 84106
ONEWEB-0698             
1 61604U 24188L   26165.53225680  .00000011  00000+0 -34251-5 0  9993
2 61604  87.8886  21.6096 0000806 115.0514 245.0697 13.11413621 84120
ONEWEB-0699             
1 61605U 24188M   26165.54300687  .00000386  00000+0  10681-2 0  9998
2 61605  87.8837  36.7930 0001529 103.3455 256.7843 13.10375817 82963
ONEWEB-0700             
1 61606U 24188N   26165.54466668  .00000513  00000+0  14327-2 0  9994
2 61606  87.8855  36.7011 0001933 103.5542 256.5801 13.10375669 82958
ONEWEB-0701             
1 61607U 24188P   26165.56126786  .00000629  00000+0  17664-2 0  9996
2 61607  87.8837  36.7883 0001537 110.6912 249.4381 13.10371389 82966
ONEWEB-0702             
1 61608U 24188Q   26165.57804368  .00000381  00000+0  10386-2 0  9996
2 61608  87.8906  21.5060 0001964 116.1667 243.9663 13.11419734 84147
ONEWEB-0704             
1 61609U 24188R   26165.39693723  .00000669  00000+0  18803-2 0  9999
2 61609  87.8845  36.8106 0002151 113.2107 246.9247 13.10373829 82924
ONEWEB-0705             
1 61610U 24188S   26165.40191374  .00002987  00000+0  85148-2 0  9999
2 61610  87.8844  36.8150 0002644 100.0085 260.1341 13.10388886 75092
ONEWEB-0706             
1 61611U 24188T   26165.38696877  .00000280  00000+0  76561-3 0  9999
2 61611  87.8839  36.8234 0002056  99.7943 260.3416 13.10376519 83010
ONEWEB-0707             
1 61612U 24188U   26165.39361346  .00000619  00000+0  17375-2 0  9994
2 61612  87.8842  36.8158 0001954 100.3373 259.7975 13.10375271 82950
ONEWEB-0708             
1 61613U 24188V   26165.56458765  .00000453  00000+0  12611-2 0  9990
2 61613  87.8831  36.8001 0002368  84.5694 275.5704 13.10370287 82953
